EXCITE                  
1 43819U 18099BP  26068.69809098  .00002813  00000+0  19631-3 0  9999
2 43819  97.4107 111.3606 0017626 337.4818  22.5634 15.06036758396774
STARLINK-6276           
1 57355U 23099AD  26068.43924385  .00001472  00000+0  12402-3 0  9993
2 57355  43.0015 237.7576 0001498 265.3402  94.7269 15.02525983146223
